[{"OBJECT_NAME":"STARLINK-3746","OBJECT_ID":"2022-041H","EPOCH":"2026-03-09T19:28:16.693248","MEAN_MOTION":15.08815198,"ECCENTRICITY":0.00014662,"INCLINATION":53.2167,"RA_OF_ASC_NODE":108.4956,"ARG_OF_PERICENTER":100.2087,"MEAN_ANOMALY":259.9071,"EPHEMERIS_TYPE":0,"CLASSIFICATION_TYPE":"U","NORAD_CAT_ID":52268,"ELEMENT_SET_NO":999,"REV_AT_EPOCH":21438,"BSTAR":-0.00017362469,"MEAN_MOTION_DOT":-3.048e-5,"MEAN_MOTION_DDOT":0},{"OBJECT_NAME":"LEMUR-2-SIERRINI","OBJECT_ID":"2024-149DR","EPOCH":"2026-03-09T19:24:50.445216","MEAN_MOTION":15.08682764,"ECCENTRICITY":0.00065795,"INCLINATION":97.6873,"RA_OF_ASC_NODE":151.1225,"ARG_OF_PERICENTER":147.8458,"MEAN_ANOMALY":212.3173,"EPHEMERIS_TYPE":0,"CLASSIFICATION_TYPE":"U","NORAD_CAT_ID":60579,"ELEMENT_SET_NO":999,"REV_AT_EPOCH":8546,"BSTAR":0.00092040134,"MEAN_MOTION_DOT":0.00014386,"MEAN_MOTION_DDOT":0}]
