STARLINK-3746           
1 52268U 22041H   26068.81130431 -.00003048  00000+0 -17362-3 0  9993
2 52268  53.2167 108.4956 0001466 100.2087 259.9071 15.08815198214384
LEMUR-2-SIERRINI        
1 60579U 24149DR  26068.80891719  .00014386  00000+0  92040-3 0  9991
2 60579  97.6873 151.1225 0006580 147.8458 212.3173 15.08682764 85461
